satname,norad_id,inclination_deg,eccentricity,mean_motion_rev_per_day,perigee_km,apogee_km,l1,l2
STARLINK-1008,44714,53.0523,0.0001304,15.06406711,546.2879269963323,548.0940525360638,1 44714U 19074B   25262.33088703  .00000892  00000+0  78753-4 0  9992,2 44714  53.0523 235.8784 0001304  89.6834 270.4305 15.06406711322923
STARLINK-1010,44716,53.051,0.0009692,15.77867183,329.97682512523716,342.99244770526366,1 44716U 19074D   25262.58339120  .00111178  00000+0  63938-3 0  9991,2 44716  53.0510 184.4421 0009692  53.0548 127.4993 15.77867183  5983
STARLINK-1011,44717,53.0495,0.0006707,15.6786789,360.4807004432678,369.52594887476425,1 44717U 19074E   25262.58339120  .00135510  00000+0  11907-2 0  9996,2 44717  53.0495 238.1764 0006707  48.4005 333.9433 15.67867890  6004
STARLINK-1012,44718,53.0519,0.0001334,15.06394503,546.3045617577027,548.1522492478907,1 44718U 19074F   25262.30877467 -.00000089  00000+0  12936-4 0  9996,2 44718  53.0519 235.9771 0001334  87.6348 272.4793 15.06394503322917
STARLINK-1015,44721,53.0446,2.21e-05,15.98916197,277.2775018408465,277.5716776631143,1 44721U 19074J   25262.58339120  .00432029  89913-4  88123-3 0  9996,2 44721  53.0446 172.1981 0000221   0.5547 155.8230 15.98916197  6070
STARLINK-1017,44723,53.0517,0.0003935,15.10940177,530.6117620878731,536.0510877382803,1 44723U 19074L   25262.33260560  .00030289  00000+0  18056-2 0  9996,2 44723  53.0517 234.3847 0003935  14.5082 345.6022 15.10940177322941
STARLINK-1019,44724,53.0539,0.0001374,15.06400783,546.2576155949591,548.1607007192206,1 44724U 19074M   25262.30509314  .00000243  00000+0  35206-4 0  9992,2 44724  53.0539 235.9952 0001374  86.4792 273.6354 15.06400783322915
STARLINK-1020,44725,53.055,0.0001327,15.0639415,546.3104912708677,548.1484835366246,1 44725U 19074N   25262.37696519  .00001139  00000+0  95338-4 0  9991,2 44725  53.0550 255.6730 0001327  98.1292 261.9848 15.06394150322643
STARLINK-1021,44726,53.0449,0.0002028,15.9280966,293.0713363736086,295.7777273309284,1 44726U 19074P   25262.58339120  .00381779  67254-4  10863-2 0  9995,2 44726  53.0449 178.0920 0002028  27.2692 185.2280 15.92809660  6016
STARLINK-1029,44734,53.0504,0.0005575,15.86705735,307.7966178252109,315.2555921872927,1 44734U 19074X   25262.58339120  .00308981  00000+0  11474-2 0  9998,2 44734  53.0504 101.9015 0005575 110.6320 352.4758 15.86705735  5997
STARLINK-1030,44735,53.0281,0.0006753,16.47034254,142.7505176269069,151.5635797690784,1 44735U 19074Y   25262.38420304  .12673879  12495-4  23705-3 0  9993,2 44735  53.0281 194.0307 0006753 236.6120 123.4284 16.47034254323502
STARLINK-1031,44736,53.0541,0.0008465,15.37627634,447.34415178093786,458.9094814224436,1 44736U 19074Z   25262.22459627  .00093335  00000+0  24676-2 0  9998,2 44736  53.0541 236.4314 0008465  21.2624 338.8729 15.37627634322918
STARLINK-1036,44741,53.0534,0.0001455,15.06401936,546.19798703162,548.2132617353145,1 44741U 19074AE  25262.27376345  .00000624  00000+0  60773-4 0  9993,2 44741  53.0534 256.1373 0001455  93.9925 266.1230 15.06401936322632
STARLINK-1039,44744,53.0522,0.000537,15.09331057,534.5287351567467,541.9569270953771,1 44744U 19074AH  25262.47174612  .00018852  00000+0  11831-2 0  9992,2 44744  53.0522 274.5963 0005370 345.5560  14.5275 15.09331057322398
STARLINK-1042,44747,53.0478,0.0003343,15.40837077,441.3570094190245,445.9180478688768,1 44747U 19074AL  25262.52631162  .00016647  00000+0  40858-3 0  9991,2 44747  53.0478 190.4507 0003343  33.3655 326.7559 15.40837077323602
STARLINK-1043,44748,53.0525,9.53e-05,15.06399339,546.5535978981798,547.8735697194534,1 44748U 19074AM  25262.31245523  .00001431  00000+0  11491-3 0  9997,2 44748  53.0525 275.9637 0000953  82.7218 277.3879 15.06399339322360
STARLINK-1046,44751,53.0535,0.0001434,15.06393683,546.2378209415774,548.2240164606619,1 44751U 19074AQ  25262.32721038  .00002178  00000+0  16507-3 0  9994,2 44751  53.0535 275.8983 0001434  89.4791 270.6363 15.06393683322363
STARLINK-1047,44752,53.0694,0.0005171,15.2797819,478.30972795801154,485.4043337847379,1 44752U 19074AR  25262.58842810  .00009461  00000+0  35419-3 0  9990,2 44752  53.0694 222.6174 0005171  54.7220 305.4261 15.27978190323142
STARLINK-1048,44753,53.0517,0.0001534,15.06394321,546.1666121712615,548.2913144488048,1 44753U 19074AS  25262.22030930  .00000454  00000+0  49363-4 0  9991,2 44753  53.0517 236.3749 0001534  89.8444 270.2721 15.06394321322901
STARLINK-1053,44758,53.0427,0.0003314,15.55069052,399.7049896907447,404.1988326210594,1 44758U 19074AX  25262.58061420  .00039223  00000+0  57733-3 0  9998,2 44758  53.0427 208.4086 0003314  73.6654 286.4720 15.55069052323343
STARLINK-1054,44759,53.0444,0.0010596,15.6526061,365.33638918337056,379.64231655036747,1 44759U 19074AY  25262.58339120  .00176341  00000+0  17083-2 0  9990,2 44759  53.0444 238.1974 0010596  16.2575 359.9446 15.65260610  5830
STARLINK-1056,44761,53.0423,0.0010556,15.76980179,331.91163695116575,346.0928613339547,1 44761U 19074BA  25262.58339120  .00121930  00000+0  72775-3 0  9997,2 44761  53.0423 227.7553 0010556  38.7421 152.9779 15.76980179  5877
STARLINK-1057,44762,53.0424,0.0002485,15.95471895,285.3435368051387,288.6561098063221,1 44762U 19074BB  25262.58339120  .00397253  74247-4  98046-3 0  9999,2 44762  53.0424 198.7860 0002485  52.1404 231.5084 15.95471895  6011
STARLINK-1060,44765,53.0531,0.000103,15.32527088,467.5704173435697,468.9807783387241,1 44765U 19074BE  25262.58339120  .01656321  00000+0  47109-1 0  9990,2 44765  53.0531 253.1167 0001030  90.8607 107.8902 15.32527088  5849
STARLINK-1063,44768,53.053,0.0001445,15.0639742,546.2187512687424,548.2201792872083,1 44768U 19074BH  25262.58154442  .00006961  00000+0  48581-3 0  9990,2 44768  53.0530 274.7547 0001445  87.9591 272.1564 15.06397420322412
STARLINK-1067,44771,53.0544,0.0001394,15.06396866,546.2557682855995,548.1865581415022,1 44771U 19074BL  25262.30509784  .00002671  00000+0  19813-3 0  9997,2 44771  53.0544 275.9968 0001394  78.1443 281.9702 15.06396866322361
STARLINK-1068,44772,53.0508,0.0001322,15.06424403,546.2212460755654,548.0522884596312,1 44772U 19074BM  25262.42855171 -.00010705  00000+0 -70037-3 0  9999,2 44772  53.0508 255.4415 0001322  86.3594 273.7546 15.06424403322657
STARLINK-1112,44925,53.0546,0.0003959,15.45478157,427.2781337515671,432.66879561750375,1 44925U 20001M   25262.55173208  .00021890  00000+0  45698-3 0  9999,2 44925  53.0546   5.6497 0003959 146.7157 213.4099 15.45478157314460
STARLINK-1114,44927,53.0566,0.0001312,15.06392539,546.3258161921276,548.143033654027,1 44927U 20001P   25262.59996249  .00000223  00000+0  33871-4 0  9991,2 44927  53.0566  34.6723 0001312  80.6597 279.4541 15.06392539314069
STARLINK-1123,44930,53.0564,0.0001261,15.063954,546.3523680806693,548.0989445425912,1 44930U 20001S   25262.61471047  .00001357  00000+0  11000-3 0  9990,2 44930  53.0564  34.6035 0001261  97.6817 262.4316 15.06395400314065
STARLINK-1144,44933,53.0494,0.0011264,15.49864046,409.46924543868954,424.7776081281463,1 44933U 20001V   25262.49103344  .00093548  00000+0  16339-2 0  9993,2 44933  53.0494 344.4852 0011264 293.1313  66.8507 15.49864046316050
STARLINK-1091,44940,53.0432,0.0005126,15.74992,341.20784379591805,348.1000490742035,1 44940U 20001AC  25262.58339120  .00150426  00000+0  97789-3 0  9992,2 44940  53.0432 329.9421 0005126 299.1490 290.9217 15.74992000  5954
STARLINK-1094,44941,53.0579,0.0001584,15.0639337,546.1348995776343,548.3288564381864,1 44941U 20001AD  25262.56125990 -.00000540  00000+0 -17364-4 0  9994,2 44941  53.0579  14.8464 0001584 138.0494 222.0617 15.06393370314338
STARLINK-1096,44942,52.9934,0.0002598,15.75370244,341.83151393807384,345.32411695618066,1 44942U 20001AE  25262.43618081  .00086388  00000+0  55861-3 0  9994,2 44942  52.9934 157.3416 0002598 133.6928 226.4306 15.75370244317350
STARLINK-1122,44949,53.054,0.0001058,15.06391181,546.5058822978654,547.9712917720817,1 44949U 20001AM  25262.58338678 -.00000507  00000+0 -15173-4 0  9992,2 44949  53.0540  14.7415 0001058  73.4354 286.6751 15.06391181314335
STARLINK-1066,44954,53.0365,0.000144,16.15923043,229.6928133489855,231.59614241461531,1 44954U 20001AS  25262.12051593  .01120832  88188-3  78136-3 0  9993,2 44954  53.0365 295.8293 0001440 352.5179   7.5836 16.15923043315348
STARLINK-1080,44961,53.055,9.67e-05,15.06395401,546.5559706781914,547.8953358153294,1 44961U 20001AZ  25262.58153673  .00007153  00000+0  49869-3 0  9996,2 44961  53.0550 354.7559 0000967  78.6280 281.4818 15.06395401314627
STARLINK-1090,44968,53.0569,0.0001264,15.06392943,546.3578199197209,548.1085535029215,1 44968U 20001BG  25262.51887763 -.00000188  00000+0  62669-5 0  9997,2 44968  53.0569 355.0367 0001264  88.5679 271.5455 15.06392943314612
STARLINK-1107,44972,53.0129,0.0008121,15.54920476,396.8773447293006,407.89026662187916,1 44972U 20001BL  25262.36491187  .00068297  00000+0  10008-2 0  9997,2 44972  53.0129 286.8549 0008121  42.2464 317.9170 15.54920476315554
STARLINK-1132,45044,53.0547,0.0001431,15.06392984,546.2420405955099,548.2240815069836,1 45044U 20006A   25262.54468438  .00006488  00000+0  45412-3 0  9998,2 45044  53.0547 314.9200 0001431  91.0155 269.0998 15.06392984310949
STARLINK-1131,45047,53.0566,0.000137,15.06384399,546.3105938658609,548.2081524721107,1 45047U 20006D   25262.58713645  .00002273  00000+0  17154-3 0  9998,2 45047  53.0566 335.2691 0001370  87.4002 272.7144 15.06384399310669
STARLINK-1134,45048,53.0464,0.0007875,15.23259978,490.6019631930676,501.42875315719357,1 45048U 20006E   25262.48483606  .00038128  00000+0  15930-2 0  9996,2 45048  53.0464 319.1821 0007875   1.8077 358.2946 15.23259978310888
STARLINK-1156,45054,53.0553,0.0001333,15.06390525,546.317444767079,548.163750434599,1 45054U 20006L   25262.49123367  .00002822  00000+0  20833-3 0  9990,2 45054  53.0553 335.1629 0001333  87.7495 272.3647 15.06390525310652
